CCSDS_OMM_VERS = 2.0
CREATION_DATE  = 
ORIGINATOR     = 

OBJECT_NAME    = STARLINK-36708
OBJECT_ID      = 2026-025W
CENTER_NAME    = EARTH
REF_FRAME      = TEME
TIME_SYSTEM    = UTC
MEAN_ELEMENT_THEORY = SGP/SGP4

EPOCH          = 2026-02-17T04:00:00.999936
MEAN_MOTION    = 16.01653919
ECCENTRICITY   = .0001291
INCLINATION    = 97.2750
RA_OF_ASC_NODE = 158.6226
ARG_OF_PERICENTER = 64.2861
MEAN_ANOMALY   = 237.3911

EPHEMERIS_TYPE = 0
CLASSIFICATION_TYPE = U
NORAD_CAT_ID   = 67713
ELEMENT_SET_NO = 999
REV_AT_EPOCH   = 261
BSTAR          = -.22969E-2
MEAN_MOTION_DOT = -.1272317E-1
MEAN_MOTION_DDOT = .52151E-3

CCSDS_OMM_VERS = 2.0
CREATION_DATE  = 
ORIGINATOR     = 

OBJECT_NAME    = STARLINK-36702
OBJECT_ID      = 2026-025X
CENTER_NAME    = EARTH
REF_FRAME      = TEME
TIME_SYSTEM    = UTC
MEAN_ELEMENT_THEORY = SGP/SGP4

EPOCH          = 2026-02-17T04:00:00.999936
MEAN_MOTION    = 16.01474255
ECCENTRICITY   = .0001434
INCLINATION    = 97.2750
RA_OF_ASC_NODE = 158.6209
ARG_OF_PERICENTER = 56.3736
MEAN_ANOMALY   = 241.2150

EPHEMERIS_TYPE = 0
CLASSIFICATION_TYPE = U
NORAD_CAT_ID   = 67714
ELEMENT_SET_NO = 999
REV_AT_EPOCH   = 234
BSTAR          = -.24224E-2
MEAN_MOTION_DOT = -.1327469E-1
MEAN_MOTION_DDOT = .56295E-3

CCSDS_OMM_VERS = 2.0
CREATION_DATE  = 
ORIGINATOR     = 

OBJECT_NAME    = STARLINK-36718
OBJECT_ID      = 2026-025Y
CENTER_NAME    = EARTH
REF_FRAME      = TEME
TIME_SYSTEM    = UTC
MEAN_ELEMENT_THEORY = SGP/SGP4

EPOCH          = 2026-02-17T04:00:00.999936
MEAN_MOTION    = 16.02169830
ECCENTRICITY   = .000125
INCLINATION    = 97.2752
RA_OF_ASC_NODE = 158.6272
ARG_OF_PERICENTER = 59.4556
MEAN_ANOMALY   = 251.7761

EPHEMERIS_TYPE = 0
CLASSIFICATION_TYPE = U
NORAD_CAT_ID   = 67715
ELEMENT_SET_NO = 999
REV_AT_EPOCH   = 255
BSTAR          = -.21968E-2
MEAN_MOTION_DOT = -.1253961E-1
MEAN_MOTION_DDOT = .51069E-3

CCSDS_OMM_VERS = 2.0
CREATION_DATE  = 
ORIGINATOR     = 

OBJECT_NAME    = STARLINK-36715
OBJECT_ID      = 2026-025Z
CENTER_NAME    = EARTH
REF_FRAME      = TEME
TIME_SYSTEM    = UTC
MEAN_ELEMENT_THEORY = SGP/SGP4

EPOCH          = 2026-02-17T04:00:00.999936
MEAN_MOTION    = 16.01930676
ECCENTRICITY   = .0001346
INCLINATION    = 97.2749
RA_OF_ASC_NODE = 158.6252
ARG_OF_PERICENTER = 56.7869
MEAN_ANOMALY   = 249.9480

EPHEMERIS_TYPE = 0
CLASSIFICATION_TYPE = U
NORAD_CAT_ID   = 67716
ELEMENT_SET_NO = 999
REV_AT_EPOCH   = 261
BSTAR          = -.22682E-2
MEAN_MOTION_DOT = -.1276697E-1
MEAN_MOTION_DDOT = .5265E-3

CCSDS_OMM_VERS = 2.0
CREATION_DATE  = 
ORIGINATOR     = 

OBJECT_NAME    = STARLINK-36385
OBJECT_ID      = 2026-025AA
CENTER_NAME    = EARTH
REF_FRAME      = TEME
TIME_SYSTEM    = UTC
MEAN_ELEMENT_THEORY = SGP/SGP4

EPOCH          = 2026-02-17T04:00:00.999936
MEAN_MOTION    = 16.01183956
ECCENTRICITY   = .0001426
INCLINATION    = 97.2753
RA_OF_ASC_NODE = 158.6192
ARG_OF_PERICENTER = 56.3425
MEAN_ANOMALY   = 236.4218

EPHEMERIS_TYPE = 0
CLASSIFICATION_TYPE = U
NORAD_CAT_ID   = 67717
ELEMENT_SET_NO = 999
REV_AT_EPOCH   = 261
BSTAR          = -.24029E-2
MEAN_MOTION_DOT = -.1295323E-1
MEAN_MOTION_DDOT = .53621E-3

CCSDS_OMM_VERS = 2.0
CREATION_DATE  = 
ORIGINATOR     = 

OBJECT_NAME    = CZ-2F DEB
OBJECT_ID      = 2026-024E
CENTER_NAME    = EARTH
REF_FRAME      = TEME
TIME_SYSTEM    = UTC
MEAN_ELEMENT_THEORY = SGP/SGP4

EPOCH          = 2026-02-17T04:15:52.495488
MEAN_MOTION    = 15.16572832
ECCENTRICITY   = .0261275
INCLINATION    = 50.3135
RA_OF_ASC_NODE = 118.8659
ARG_OF_PERICENTER = 199.3808
MEAN_ANOMALY   = 159.7067

EPHEMERIS_TYPE = 0
CLASSIFICATION_TYPE = U
NORAD_CAT_ID   = 67718
ELEMENT_SET_NO = 999
REV_AT_EPOCH   = 151
BSTAR          = .52566E-2
MEAN_MOTION_DOT = .263181E-2
MEAN_MOTION_DDOT = 0

CCSDS_OMM_VERS = 2.0
CREATION_DATE  = 
ORIGINATOR     = 

OBJECT_NAME    = CZ-2F DEB
OBJECT_ID      = 2026-024F
CENTER_NAME    = EARTH
REF_FRAME      = TEME
TIME_SYSTEM    = UTC
MEAN_ELEMENT_THEORY = SGP/SGP4

EPOCH          = 2026-02-17T04:04:02.292672
MEAN_MOTION    = 14.97196336
ECCENTRICITY   = .0334145
INCLINATION    = 49.7905
RA_OF_ASC_NODE = 120.1966
ARG_OF_PERICENTER = 189.2746
MEAN_ANOMALY   = 170.1922

EPHEMERIS_TYPE = 0
CLASSIFICATION_TYPE = U
NORAD_CAT_ID   = 67719
ELEMENT_SET_NO = 999
REV_AT_EPOCH   = 116
BSTAR          = .49747E-2
MEAN_MOTION_DOT = .194318E-2
MEAN_MOTION_DDOT = 0

CCSDS_OMM_VERS = 2.0
CREATION_DATE  = 
ORIGINATOR     = 

OBJECT_NAME    = CZ-2F DEB
OBJECT_ID      = 2026-024G
CENTER_NAME    = EARTH
REF_FRAME      = TEME
TIME_SYSTEM    = UTC
MEAN_ELEMENT_THEORY = SGP/SGP4

EPOCH          = 2026-02-17T04:29:46.091328
MEAN_MOTION    = 14.94535185
ECCENTRICITY   = .0344843
INCLINATION    = 49.8300
RA_OF_ASC_NODE = 120.3046
ARG_OF_PERICENTER = 185.9300
MEAN_ANOMALY   = 173.7507

EPHEMERIS_TYPE = 0
CLASSIFICATION_TYPE = U
NORAD_CAT_ID   = 67720
ELEMENT_SET_NO = 999
REV_AT_EPOCH   = 148
BSTAR          = .52806E-2
MEAN_MOTION_DOT = .201123E-2
MEAN_MOTION_DDOT = 0

CCSDS_OMM_VERS = 2.0
CREATION_DATE  = 
ORIGINATOR     = 

OBJECT_NAME    = 2026-027A
OBJECT_ID      = 2026-027A
CENTER_NAME    = EARTH
REF_FRAME      = TEME
TIME_SYSTEM    = UTC
MEAN_ELEMENT_THEORY = SGP/SGP4

EPOCH          = 2026-02-17T03:07:15.424032
MEAN_MOTION    = 15.17295888
ECCENTRICITY   = .000917
INCLINATION    = 97.4878
RA_OF_ASC_NODE = 177.3701
ARG_OF_PERICENTER = 271.5383
MEAN_ANOMALY   = 88.4800

EPHEMERIS_TYPE = 0
CLASSIFICATION_TYPE = U
NORAD_CAT_ID   = 67746
ELEMENT_SET_NO = 999
REV_AT_EPOCH   = 74
BSTAR          = .48397E-3
MEAN_MOTION_DOT = .9592E-4
MEAN_MOTION_DDOT = 0

CCSDS_OMM_VERS = 2.0
CREATION_DATE  = 
ORIGINATOR     = 

OBJECT_NAME    = 2026-027B
OBJECT_ID      = 2026-027B
CENTER_NAME    = EARTH
REF_FRAME      = TEME
TIME_SYSTEM    = UTC
MEAN_ELEMENT_THEORY = SGP/SGP4

EPOCH          = 2026-02-17T03:06:47.418336
MEAN_MOTION    = 15.17397215
ECCENTRICITY   = .0009333
INCLINATION    = 97.4872
RA_OF_ASC_NODE = 177.3701
ARG_OF_PERICENTER = 274.2043
MEAN_ANOMALY   = 85.8124

EPHEMERIS_TYPE = 0
CLASSIFICATION_TYPE = U
NORAD_CAT_ID   = 67747
ELEMENT_SET_NO = 999
REV_AT_EPOCH   = 74
BSTAR          = .47902E-3
MEAN_MOTION_DOT = .9521E-4
MEAN_MOTION_DDOT = 0

CCSDS_OMM_VERS = 2.0
CREATION_DATE  = 
ORIGINATOR     = 

OBJECT_NAME    = 2027-027C
OBJECT_ID      = 2027-027C
CENTER_NAME    = EARTH
REF_FRAME      = TEME
TIME_SYSTEM    = UTC
MEAN_ELEMENT_THEORY = SGP/SGP4

EPOCH          = 2026-02-17T03:06:08.194464
MEAN_MOTION    = 15.17524803
ECCENTRICITY   = .0009761
INCLINATION    = 97.4885
RA_OF_ASC_NODE = 177.3715
ARG_OF_PERICENTER = 277.4124
MEAN_ANOMALY   = 82.6000

EPHEMERIS_TYPE = 0
CLASSIFICATION_TYPE = U
NORAD_CAT_ID   = 67748
ELEMENT_SET_NO = 999
REV_AT_EPOCH   = 74
BSTAR          = .31946E-3
MEAN_MOTION_DOT = .6348E-4
MEAN_MOTION_DDOT = 0

CCSDS_OMM_VERS = 2.0
CREATION_DATE  = 
ORIGINATOR     = 

OBJECT_NAME    = 2026-027D
OBJECT_ID      = 2026-027D
CENTER_NAME    = EARTH
REF_FRAME      = TEME
TIME_SYSTEM    = UTC
MEAN_ELEMENT_THEORY = SGP/SGP4

EPOCH          = 2026-02-17T03:05:28.366656
MEAN_MOTION    = 15.17689513
ECCENTRICITY   = .0009588
INCLINATION    = 97.4880
RA_OF_ASC_NODE = 177.3719
ARG_OF_PERICENTER = 281.6532
MEAN_ANOMALY   = 78.3625

EPHEMERIS_TYPE = 0
CLASSIFICATION_TYPE = U
NORAD_CAT_ID   = 67749
ELEMENT_SET_NO = 999
REV_AT_EPOCH   = 69
BSTAR          = .55754E-3
MEAN_MOTION_DOT = .11189E-3
MEAN_MOTION_DDOT = 0

