STARLINK-36708          
1 67713U 26025W   26048.16667824 -.01272317  52151-3 -22969-2 0  9991
2 67713  97.2750 158.6226 0001291  64.2861 237.3911 16.01653919  2612
STARLINK-36702          
1 67714U 26025X   26048.16667824 -.01327469  56295-3 -24224-2 0  9990
2 67714  97.2750 158.6209 0001434  56.3736 241.2150 16.01474255  2349
STARLINK-36718          
1 67715U 26025Y   26048.16667824 -.01253961  51069-3 -21968-2 0  9992
2 67715  97.2752 158.6272 0001250  59.4556 251.7761 16.02169830  2550
STARLINK-36715          
1 67716U 26025Z   26048.16667824 -.01276697  52650-3 -22682-2 0  9995
2 67716  97.2749 158.6252 0001346  56.7869 249.9480 16.01930676  2615
STARLINK-36385          
1 67717U 26025AA  26048.16667824 -.01295323  53621-3 -24029-2 0  9999
2 67717  97.2753 158.6192 0001426  56.3425 236.4218 16.01183956  2618
CZ-2F DEB               
1 67718U 26024E   26048.17769092  .00263181  00000+0  52566-2 0  9990
2 67718  50.3135 118.8659 0261275 199.3808 159.7067 15.16572832  1519
CZ-2F DEB               
1 67719U 26024F   26048.16947098  .00194318  00000+0  49747-2 0  9996
2 67719  49.7905 120.1966 0334145 189.2746 170.1922 14.97196336  1167
CZ-2F DEB               
1 67720U 26024G   26048.18733902  .00201123  00000+0  52806-2 0  9990
2 67720  49.8300 120.3046 0344843 185.9300 173.7507 14.94535185  1484
2026-027A               
1 67746U 26027A   26048.13003963  .00009592  00000+0  48397-3 0  9990
2 67746  97.4878 177.3701 0009170 271.5383  88.4800 15.17295888   740
2026-027B               
1 67747U 26027B   26048.12971549  .00009521  00000+0  47902-3 0  9997
2 67747  97.4872 177.3701 0009333 274.2043  85.8124 15.17397215   746
2027-027C               
1 67748U 27027C   26048.12926151  .00006348  00000+0  31946-3 0  9993
2 67748  97.4885 177.3715 0009761 277.4124  82.6000 15.17524803   749
2026-027D               
1 67749U 26027D   26048.12880054  .00011189  00000+0  55754-3 0  9996
2 67749  97.4880 177.3719 0009588 281.6532  78.3625 15.17689513   695
